ORBCOMM FM24            
1 25478U 98053D   24251.91365211  .00005668  00000+0  19667-2 0  9998
2 25478  45.0072 165.9154 0001504 295.3490  64.7202 14.36329226356833
ORBCOMM FM25            
1 25479U 98053E   24252.15961837  .00005917  00000+0  20515-2 0  9993
2 25479  45.0062 163.0038 0003938 287.3201  72.7216 14.36315457357169
ORBCOMM FM26            
1 25480U 98053F   24252.14694579  .00004729  00000+0  16714-2 0  9996
2 25480  45.0056 157.7318 0006237 301.8476  58.1764 14.35650731357191
ORBCOMM FM27            
1 25481U 98053G   24251.80102088  .00006319  00000+0  21882-2 0  9997
2 25481  45.0043 164.9585 0001209   5.7530 354.3332 14.36303488357040
ORBCOMM FM28            
1 25482U 98053H   24251.89187809  .00005001  00000+0  17288-2 0  9993
2 25482  45.0047 102.6125 0003480 327.1943  32.8689 14.36681364357737
ORBCOMM FM30            
1 25980U 99065A   24251.74964310  .00004856  00000+0  17103-2 0  9997
2 25980  45.0329 345.2567 0004366  20.7055 339.3969 14.35792659293837
ORBCOMM FM31            
1 25981U 99065B   24251.64626226  .00005273  00000+0  18538-2 0  9995
2 25981  45.0241 339.3578 0001298  49.8514 310.2447 14.35774035293376
ORBCOMM FM32            
1 25982U 99065C   24251.71115040  .00004666  00000+0  16788-2 0  9991
2 25982  45.0170 353.7031 0003570  61.2588 298.8618 14.34785356294005
