<?xml version="1.0" encoding="UTF-8"?>
<ndm xmlns:xsi="http://www.w3.org/2001/XMLSchema-instance" xsi:noNamespaceSchemaLocation="https://sanaregistry.org/r/ndmxml_unqualified/ndmxml-2.0.0-master-2.0.xsd">
<omm id="CCSDS_OMM_VERS" version="2.0">
<header><CREATION_DATE/><ORIGINATOR/></header><body><segment><metadata><OBJECT_NAME>ORBCOMM FM24</OBJECT_NAME><OBJECT_ID>1998-053D</OBJECT_ID><CENTER_NAME>EARTH</CENTER_NAME><REF_FRAME>TEME</REF_FRAME><TIME_SYSTEM>UTC</TIME_SYSTEM><MEAN_ELEMENT_THEORY>SGP4</MEAN_ELEMENT_THEORY></metadata><data><meanElements><EPOCH>2024-09-07T21:55:39.542304</EPOCH><MEAN_MOTION>14.36329226</MEAN_MOTION><ECCENTRICITY>.0001504</ECCENTRICITY><INCLINATION>45.0072</INCLINATION><RA_OF_ASC_NODE>165.9154</RA_OF_ASC_NODE><ARG_OF_PERICENTER>295.3490</ARG_OF_PERICENTER><MEAN_ANOMALY>64.7202</MEAN_ANOMALY></meanElements><tleParameters><EPHEMERIS_TYPE>0</EPHEMERIS_TYPE><CLASSIFICATION_TYPE>U</CLASSIFICATION_TYPE><NORAD_CAT_ID>25478</NORAD_CAT_ID><ELEMENT_SET_NO>999</ELEMENT_SET_NO><REV_AT_EPOCH>35683</REV_AT_EPOCH><BSTAR>.19667E-2</BSTAR><MEAN_MOTION_DOT>.5668E-4</MEAN_MOTION_DOT><MEAN_MOTION_DDOT>0</MEAN_MOTION_DDOT></tleParameters></data></segment></body></omm>
<omm id="CCSDS_OMM_VERS" version="2.0">
<header><CREATION_DATE/><ORIGINATOR/></header><body><segment><metadata><OBJECT_NAME>ORBCOMM FM25</OBJECT_NAME><OBJECT_ID>1998-053E</OBJECT_ID><CENTER_NAME>EARTH</CENTER_NAME><REF_FRAME>TEME</REF_FRAME><TIME_SYSTEM>UTC</TIME_SYSTEM><MEAN_ELEMENT_THEORY>SGP4</MEAN_ELEMENT_THEORY></metadata><data><meanElements><EPOCH>2024-09-08T03:49:51.027168</EPOCH><MEAN_MOTION>14.36315457</MEAN_MOTION><ECCENTRICITY>.0003938</ECCENTRICITY><INCLINATION>45.0062</INCLINATION><RA_OF_ASC_NODE>163.0038</RA_OF_ASC_NODE><ARG_OF_PERICENTER>287.3201</ARG_OF_PERICENTER><MEAN_ANOMALY>72.7216</MEAN_ANOMALY></meanElements><tleParameters><EPHEMERIS_TYPE>0</EPHEMERIS_TYPE><CLASSIFICATION_TYPE>U</CLASSIFICATION_TYPE><NORAD_CAT_ID>25479</NORAD_CAT_ID><ELEMENT_SET_NO>999</ELEMENT_SET_NO><REV_AT_EPOCH>35716</REV_AT_EPOCH><BSTAR>.20515E-2</BSTAR><MEAN_MOTION_DOT>.5917E-4</MEAN_MOTION_DOT><MEAN_MOTION_DDOT>0</MEAN_MOTION_DDOT></tleParameters></data></segment></body></omm>
<omm id="CCSDS_OMM_VERS" version="2.0">
<header><CREATION_DATE/><ORIGINATOR/></header><body><segment><metadata><OBJECT_NAME>ORBCOMM FM26</OBJECT_NAME><OBJECT_ID>1998-053F</OBJECT_ID><CENTER_NAME>EARTH</CENTER_NAME><REF_FRAME>TEME</REF_FRAME><TIME_SYSTEM>UTC</TIME_SYSTEM><MEAN_ELEMENT_THEORY>SGP4</MEAN_ELEMENT_THEORY></metadata><data><meanElements><EPOCH>2024-09-08T03:31:36.116256</EPOCH><MEAN_MOTION>14.35650731</MEAN_MOTION><ECCENTRICITY>.0006237</ECCENTRICITY><INCLINATION>45.0056</INCLINATION><RA_OF_ASC_NODE>157.7318</RA_OF_ASC_NODE><ARG_OF_PERICENTER>301.8476</ARG_OF_PERICENTER><MEAN_ANOMALY>58.1764</MEAN_ANOMALY></meanElements><tleParameters><EPHEMERIS_TYPE>0</EPHEMERIS_TYPE><CLASSIFICATION_TYPE>U</CLASSIFICATION_TYPE><NORAD_CAT_ID>25480</NORAD_CAT_ID><ELEMENT_SET_NO>999</ELEMENT_SET_NO><REV_AT_EPOCH>35719</REV_AT_EPOCH><BSTAR>.16714E-2</BSTAR><MEAN_MOTION_DOT>.4729E-4</MEAN_MOTION_DOT><MEAN_MOTION_DDOT>0</MEAN_MOTION_DDOT></tleParameters></data></segment></body></omm>
<omm id="CCSDS_OMM_VERS" version="2.0">
<header><CREATION_DATE/><ORIGINATOR/></header><body><segment><metadata><OBJECT_NAME>ORBCOMM FM27</OBJECT_NAME><OBJECT_ID>1998-053G</OBJECT_ID><CENTER_NAME>EARTH</CENTER_NAME><REF_FRAME>TEME</REF_FRAME><TIME_SYSTEM>UTC</TIME_SYSTEM><MEAN_ELEMENT_THEORY>SGP4</MEAN_ELEMENT_THEORY></metadata><data><meanElements><EPOCH>2024-09-07T19:13:28.204032</EPOCH><MEAN_MOTION>14.36303488</MEAN_MOTION><ECCENTRICITY>.0001209</ECCENTRICITY><INCLINATION>45.0043</INCLINATION><RA_OF_ASC_NODE>164.9585</RA_OF_ASC_NODE><ARG_OF_PERICENTER>5.7530</ARG_OF_PERICENTER><MEAN_ANOMALY>354.3332</MEAN_ANOMALY></meanElements><tleParameters><EPHEMERIS_TYPE>0</EPHEMERIS_TYPE><CLASSIFICATION_TYPE>U</CLASSIFICATION_TYPE><NORAD_CAT_ID>25481</NORAD_CAT_ID><ELEMENT_SET_NO>999</ELEMENT_SET_NO><REV_AT_EPOCH>35704</REV_AT_EPOCH><BSTAR>.21882E-2</BSTAR><MEAN_MOTION_DOT>.6319E-4</MEAN_MOTION_DOT><MEAN_MOTION_DDOT>0</MEAN_MOTION_DDOT></tleParameters></data></segment></body></omm>
<omm id="CCSDS_OMM_VERS" version="2.0">
<header><CREATION_DATE/><ORIGINATOR/></header><body><segment><metadata><OBJECT_NAME>ORBCOMM FM28</OBJECT_NAME><OBJECT_ID>1998-053H</OBJECT_ID><CENTER_NAME>EARTH</CENTER_NAME><REF_FRAME>TEME</REF_FRAME><TIME_SYSTEM>UTC</TIME_SYSTEM><MEAN_ELEMENT_THEORY>SGP4</MEAN_ELEMENT_THEORY></metadata><data><meanElements><EPOCH>2024-09-07T21:24:18.266976</EPOCH><MEAN_MOTION>14.36681364</MEAN_MOTION><ECCENTRICITY>.000348</ECCENTRICITY><INCLINATION>45.0047</INCLINATION><RA_OF_ASC_NODE>102.6125</RA_OF_ASC_NODE><ARG_OF_PERICENTER>327.1943</ARG_OF_PERICENTER><MEAN_ANOMALY>32.8689</MEAN_ANOMALY></meanElements><tleParameters><EPHEMERIS_TYPE>0</EPHEMERIS_TYPE><CLASSIFICATION_TYPE>U</CLASSIFICATION_TYPE><NORAD_CAT_ID>25482</NORAD_CAT_ID><ELEMENT_SET_NO>999</ELEMENT_SET_NO><REV_AT_EPOCH>35773</REV_AT_EPOCH><BSTAR>.17288E-2</BSTAR><MEAN_MOTION_DOT>.5001E-4</MEAN_MOTION_DOT><MEAN_MOTION_DDOT>0</MEAN_MOTION_DDOT></tleParameters></data></segment></body></omm>
<omm id="CCSDS_OMM_VERS" version="2.0">
<header><CREATION_DATE/><ORIGINATOR/></header><body><segment><metadata><OBJECT_NAME>ORBCOMM FM30</OBJECT_NAME><OBJECT_ID>1999-065A</OBJECT_ID><CENTER_NAME>EARTH</CENTER_NAME><REF_FRAME>TEME</REF_FRAME><TIME_SYSTEM>UTC</TIME_SYSTEM><MEAN_ELEMENT_THEORY>SGP4</MEAN_ELEMENT_THEORY></metadata><data><meanElements><EPOCH>2024-09-07T17:59:29.163840</EPOCH><MEAN_MOTION>14.35792659</MEAN_MOTION><ECCENTRICITY>.0004366</ECCENTRICITY><INCLINATION>45.0329</INCLINATION><RA_OF_ASC_NODE>345.2567</RA_OF_ASC_NODE><ARG_OF_PERICENTER>20.7055</ARG_OF_PERICENTER><MEAN_ANOMALY>339.3969</MEAN_ANOMALY></meanElements><tleParameters><EPHEMERIS_TYPE>0</EPHEMERIS_TYPE><CLASSIFICATION_TYPE>U</CLASSIFICATION_TYPE><NORAD_CAT_ID>25980</NORAD_CAT_ID><ELEMENT_SET_NO>999</ELEMENT_SET_NO><REV_AT_EPOCH>29383</REV_AT_EPOCH><BSTAR>.17103E-2</BSTAR><MEAN_MOTION_DOT>.4856E-4</MEAN_MOTION_DOT><MEAN_MOTION_DDOT>0</MEAN_MOTION_DDOT></tleParameters></data></segment></body></omm>
<omm id="CCSDS_OMM_VERS" version="2.0">
<header><CREATION_DATE/><ORIGINATOR/></header><body><segment><metadata><OBJECT_NAME>ORBCOMM FM31</OBJECT_NAME><OBJECT_ID>1999-065B</OBJECT_ID><CENTER_NAME>EARTH</CENTER_NAME><REF_FRAME>TEME</REF_FRAME><TIME_SYSTEM>UTC</TIME_SYSTEM><MEAN_ELEMENT_THEORY>SGP4</MEAN_ELEMENT_THEORY></metadata><data><meanElements><EPOCH>2024-09-07T15:30:37.059264</EPOCH><MEAN_MOTION>14.35774035</MEAN_MOTION><ECCENTRICITY>.0001298</ECCENTRICITY><INCLINATION>45.0241</INCLINATION><RA_OF_ASC_NODE>339.3578</RA_OF_ASC_NODE><ARG_OF_PERICENTER>49.8514</ARG_OF_PERICENTER><MEAN_ANOMALY>310.2447</MEAN_ANOMALY></meanElements><tleParameters><EPHEMERIS_TYPE>0</EPHEMERIS_TYPE><CLASSIFICATION_TYPE>U</CLASSIFICATION_TYPE><NORAD_CAT_ID>25981</NORAD_CAT_ID><ELEMENT_SET_NO>999</ELEMENT_SET_NO><REV_AT_EPOCH>29337</REV_AT_EPOCH><BSTAR>.18538E-2</BSTAR><MEAN_MOTION_DOT>.5273E-4</MEAN_MOTION_DOT><MEAN_MOTION_DDOT>0</MEAN_MOTION_DDOT></tleParameters></data></segment></body></omm>
<omm id="CCSDS_OMM_VERS" version="2.0">
<header><CREATION_DATE/><ORIGINATOR/></header><body><segment><metadata><OBJECT_NAME>ORBCOMM FM32</OBJECT_NAME><OBJECT_ID>1999-065C</OBJECT_ID><CENTER_NAME>EARTH</CENTER_NAME><REF_FRAME>TEME</REF_FRAME><TIME_SYSTEM>UTC</TIME_SYSTEM><MEAN_ELEMENT_THEORY>SGP4</MEAN_ELEMENT_THEORY></metadata><data><meanElements><EPOCH>2024-09-07T17:04:03.394560</EPOCH><MEAN_MOTION>14.34785356</MEAN_MOTION><ECCENTRICITY>.000357</ECCENTRICITY><INCLINATION>45.0170</INCLINATION><RA_OF_ASC_NODE>353.7031</RA_OF_ASC_NODE><ARG_OF_PERICENTER>61.2588</ARG_OF_PERICENTER><MEAN_ANOMALY>298.8618</MEAN_ANOMALY></meanElements><tleParameters><EPHEMERIS_TYPE>0</EPHEMERIS_TYPE><CLASSIFICATION_TYPE>U</CLASSIFICATION_TYPE><NORAD_CAT_ID>25982</NORAD_CAT_ID><ELEMENT_SET_NO>999</ELEMENT_SET_NO><REV_AT_EPOCH>29400</REV_AT_EPOCH><BSTAR>.16788E-2</BSTAR><MEAN_MOTION_DOT>.4666E-4</MEAN_MOTION_DOT><MEAN_MOTION_DDOT>0</MEAN_MOTION_DDOT></tleParameters></data></segment></body></omm>

</ndm>
